[{"OBJECT_NAME":"TOMORROW-S1","OBJECT_ID":"2024-149M","EPOCH":"2026-03-09T17:23:34.533600","MEAN_MOTION":15.31198363,"ECCENTRICITY":0.00018188,"INCLINATION":97.3791,"RA_OF_ASC_NODE":149.6044,"ARG_OF_PERICENTER":207.204,"MEAN_ANOMALY":152.9106,"EPHEMERIS_TYPE":0,"CLASSIFICATION_TYPE":"U","NORAD_CAT_ID":60479,"ELEMENT_SET_NO":999,"REV_AT_EPOCH":8686,"BSTAR":0.0002885603,"MEAN_MOTION_DOT":8.62e-5,"MEAN_MOTION_DDOT":0},{"OBJECT_NAME":"STARLINK-32169","OBJECT_ID":"2024-150G","EPOCH":"2026-03-09T20:50:32.591328","MEAN_MOTION":15.30178264,"ECCENTRICITY":0.00010645,"INCLINATION":53.1609,"RA_OF_ASC_NODE":306.5604,"ARG_OF_PERICENTER":74.7722,"MEAN_ANOMALY":285.3397,"EPHEMERIS_TYPE":0,"CLASSIFICATION_TYPE":"U","NORAD_CAT_ID":60589,"ELEMENT_SET_NO":999,"REV_AT_EPOCH":8806,"BSTAR":2.6104596e-5,"MEAN_MOTION_DOT":4.14e-6,"MEAN_MOTION_DDOT":0}]
